[{"OBJECT_NAME":"NIMIQ 2","OBJECT_ID":"2002-062A","EPOCH":"2026-03-06T23:42:27.209952","MEAN_MOTION":1.00272969,"ECCENTRICITY":0.000654,"INCLINATION":9.21,"RA_OF_ASC_NODE":57.9543,"ARG_OF_PERICENTER":293.281,"MEAN_ANOMALY":59.8854,"EPHEMERIS_TYPE":0,"CLASSIFICATION_TYPE":"U","NORAD_CAT_ID":27632,"ELEMENT_SET_NO":999,"REV_AT_EPOCH":4315,"BSTAR":0,"MEAN_MOTION_DOT":-7.0e-7,"MEAN_MOTION_DDOT":0},{"OBJECT_NAME":"ANIK F2","OBJECT_ID":"2004-027A","EPOCH":"2026-03-07T03:14:38.527296","MEAN_MOTION":1.0027209,"ECCENTRICITY":0.00032,"INCLINATION":3.0213,"RA_OF_ASC_NODE":80.81,"ARG_OF_PERICENTER":299.4834,"MEAN_ANOMALY":82.0964,"EPHEMERIS_TYPE":0,"CLASSIFICATION_TYPE":"U","NORAD_CAT_ID":28378,"ELEMENT_SET_NO":999,"REV_AT_EPOCH":4024,"BSTAR":0,"MEAN_MOTION_DOT":-5.2e-7,"MEAN_MOTION_DDOT":0},{"OBJECT_NAME":"ANIK F1R","OBJECT_ID":"2005-036A","EPOCH":"2026-03-06T13:26:52.424736","MEAN_MOTION":1.00272466,"ECCENTRICITY":0.00030888,"INCLINATION":4.0502,"RA_OF_ASC_NODE":77.8643,"ARG_OF_PERICENTER":305.7259,"MEAN_ANOMALY":235.1157,"EPHEMERIS_TYPE":0,"CLASSIFICATION_TYPE":"U","NORAD_CAT_ID":28868,"ELEMENT_SET_NO":999,"REV_AT_EPOCH":4542,"BSTAR":0,"MEAN_MOTION_DOT":-7.8e-7,"MEAN_MOTION_DDOT":0},{"OBJECT_NAME":"ANIK F3","OBJECT_ID":"2007-009A","EPOCH":"2026-03-07T03:22:38.728128","MEAN_MOTION":1.00271108,"ECCENTRICITY":0.0002776,"INCLINATION":0.9335,"RA_OF_ASC_NODE":85.174,"ARG_OF_PERICENTER":259.5024,"MEAN_ANOMALY":112.1262,"EPHEMERIS_TYPE":0,"CLASSIFICATION_TYPE":"U","NORAD_CAT_ID":31102,"ELEMENT_SET_NO":999,"REV_AT_EPOCH":4554,"BSTAR":0,"MEAN_MOTION_DOT":-3.0e-8,"MEAN_MOTION_DDOT":0},{"OBJECT_NAME":"NIMIQ 4","OBJECT_ID":"2008-044A","EPOCH":"2026-03-07T03:15:36.771264","MEAN_MOTION":1.00270676,"ECCENTRICITY":0.0002122,"INCLINATION":0.0012,"RA_OF_ASC_NODE":174.9595,"ARG_OF_PERICENTER":188.726,"MEAN_ANOMALY":128.0373,"EPHEMERIS_TYPE":0,"CLASSIFICATION_TYPE":"U","NORAD_CAT_ID":33373,"ELEMENT_SET_NO":999,"REV_AT_EPOCH":6396,"BSTAR":0,"MEAN_MOTION_DOT":-2.22e-6,"MEAN_MOTION_DDOT":0},{"OBJECT_NAME":"TELSTAR 11N","OBJECT_ID":"2009-009A","EPOCH":"2026-03-06T12:04:01.037856","MEAN_MOTION":1.00273419,"ECCENTRICITY":0.00023255,"INCLINATION":0.0188,"RA_OF_ASC_NODE":144.0631,"ARG_OF_PERICENTER":198.3425,"MEAN_ANOMALY":325.2543,"EPHEMERIS_TYPE":0,"CLASSIFICATION_TYPE":"U","NORAD_CAT_ID":34111,"ELEMENT_SET_NO":999,"REV_AT_EPOCH":4521,"BSTAR":0,"MEAN_MOTION_DOT":-2.55e-6,"MEAN_MOTION_DDOT":0},{"OBJECT_NAME":"TERRESTAR-1","OBJECT_ID":"2009-035A","EPOCH":"2026-03-07T01:35:38.779584","MEAN_MOTION":1.00273518,"ECCENTRICITY":0.0002875,"INCLINATION":5.0967,"RA_OF_ASC_NODE":48.8304,"ARG_OF_PERICENTER":306.196,"MEAN_ANOMALY":82.6714,"EPHEMERIS_TYPE":0,"CLASSIFICATION_TYPE":"U","NORAD_CAT_ID":35496,"ELEMENT_SET_NO":999,"REV_AT_EPOCH":6111,"BSTAR":0,"MEAN_MOTION_DOT":-5.8e-7,"MEAN_MOTION_DDOT":0},{"OBJECT_NAME":"NIMIQ 5","OBJECT_ID":"2009-050A","EPOCH":"2026-03-07T02:42:38.530944","MEAN_MOTION":1.0027242,"ECCENTRICITY":0.0002652,"INCLINATION":0.046,"RA_OF_ASC_NODE":267.8974,"ARG_OF_PERICENTER":84.6276,"MEAN_ANOMALY":140.2468,"EPHEMERIS_TYPE":0,"CLASSIFICATION_TYPE":"U","NORAD_CAT_ID":35873,"ELEMENT_SET_NO":999,"REV_AT_EPOCH":6032,"BSTAR":0,"MEAN_MOTION_DOT":-2.59e-6,"MEAN_MOTION_DDOT":0},{"OBJECT_NAME":"SKYTERRA 1","OBJECT_ID":"2010-061A","EPOCH":"2026-03-07T01:09:38.825856","MEAN_MOTION":1.00272943,"ECCENTRICITY":0.000155,"INCLINATION":4.9077,"RA_OF_ASC_NODE":50.9108,"ARG_OF_PERICENTER":305.6696,"MEAN_ANOMALY":84.2607,"EPHEMERIS_TYPE":0,"CLASSIFICATION_TYPE":"U","NORAD_CAT_ID":37218,"ELEMENT_SET_NO":999,"REV_AT_EPOCH":5617,"BSTAR":0,"MEAN_MOTION_DOT":-1.19e-6,"MEAN_MOTION_DDOT":0},{"OBJECT_NAME":"TELSTAR 14R","OBJECT_ID":"2011-021A","EPOCH":"2026-03-06T23:55:40.941696","MEAN_MOTION":1.00272426,"ECCENTRICITY":0.0002393,"INCLINATION":0.022,"RA_OF_ASC_NODE":247.0435,"ARG_OF_PERICENTER":107.8988,"MEAN_ANOMALY":105.6839,"EPHEMERIS_TYPE":0,"CLASSIFICATION_TYPE":"U","NORAD_CAT_ID":37602,"ELEMENT_SET_NO":999,"REV_AT_EPOCH":5481,"BSTAR":0,"MEAN_MOTION_DOT":-2.83e-6,"MEAN_MOTION_DDOT":0},{"OBJECT_NAME":"NIMIQ 6","OBJECT_ID":"2012-026A","EPOCH":"2026-03-06T08:23:22.193952","MEAN_MOTION":1.00270837,"ECCENTRICITY":0.00025883,"INCLINATION":0.0509,"RA_OF_ASC_NODE":279.5517,"ARG_OF_PERICENTER":64.8171,"MEAN_ANOMALY":214.4242,"EPHEMERIS_TYPE":0,"CLASSIFICATION_TYPE":"U","NORAD_CAT_ID":38342,"ELEMENT_SET_NO":999,"REV_AT_EPOCH":4938,"BSTAR":0,"MEAN_MOTION_DOT":-1.78e-6,"MEAN_MOTION_DDOT":0},{"OBJECT_NAME":"ANIK G1","OBJECT_ID":"2013-014A","EPOCH":"2026-03-07T03:14:38.527296","MEAN_MOTION":1.00272088,"ECCENTRICITY":0.0002911,"INCLINATION":0.0482,"RA_OF_ASC_NODE":268.0592,"ARG_OF_PERICENTER":59.4559,"MEAN_ANOMALY":138.674,"EPHEMERIS_TYPE":0,"CLASSIFICATION_TYPE":"U","NORAD_CAT_ID":39127,"ELEMENT_SET_NO":999,"REV_AT_EPOCH":4723,"BSTAR":0,"MEAN_MOTION_DOT":-7.6e-7,"MEAN_MOTION_DDOT":0},{"OBJECT_NAME":"TELSTAR 12V","OBJECT_ID":"2015-068A","EPOCH":"2026-03-07T00:09:17.136576","MEAN_MOTION":1.00272618,"ECCENTRICITY":0.0002615,"INCLINATION":0.0173,"RA_OF_ASC_NODE":196.4798,"ARG_OF_PERICENTER":149.9483,"MEAN_ANOMALY":165.6114,"EPHEMERIS_TYPE":0,"CLASSIFICATION_TYPE":"U","NORAD_CAT_ID":41036,"ELEMENT_SET_NO":999,"REV_AT_EPOCH":3760,"BSTAR":0,"MEAN_MOTION_DOT":-1.21e-6,"MEAN_MOTION_DDOT":0},{"OBJECT_NAME":"VIASAT-2","OBJECT_ID":"2017-029A","EPOCH":"2026-03-07T02:42:38.530944","MEAN_MOTION":1.00270555,"ECCENTRICITY":6.87e-5,"INCLINATION":0.0246,"RA_OF_ASC_NODE":251.1362,"ARG_OF_PERICENTER":134.2515,"MEAN_ANOMALY":110.1896,"EPHEMERIS_TYPE":0,"CLASSIFICATION_TYPE":"U","NORAD_CAT_ID":42740,"ELEMENT_SET_NO":999,"REV_AT_EPOCH":3218,"BSTAR":0,"MEAN_MOTION_DOT":-2.68e-6,"MEAN_MOTION_DDOT":0},{"OBJECT_NAME":"LEO 1 (LEO VANTAGE 1)","OBJECT_ID":"2018-004C","EPOCH":"2026-03-07T04:23:38.413536","MEAN_MOTION":14.67152946,"ECCENTRICITY":0.0353165,"INCLINATION":99.2481,"RA_OF_ASC_NODE":331.1777,"ARG_OF_PERICENTER":32.5762,"MEAN_ANOMALY":329.6702,"EPHEMERIS_TYPE":0,"CLASSIFICATION_TYPE":"U","NORAD_CAT_ID":43113,"ELEMENT_SET_NO":999,"REV_AT_EPOCH":42252,"BSTAR":0.00037085,"MEAN_MOTION_DOT":5.341e-5,"MEAN_MOTION_DDOT":0},{"OBJECT_NAME":"TELSTAR 19V","OBJECT_ID":"2018-059A","EPOCH":"2026-03-07T02:42:14.530752","MEAN_MOTION":1.0027148,"ECCENTRICITY":9.12e-5,"INCLINATION":0.021,"RA_OF_ASC_NODE":157.4695,"ARG_OF_PERICENTER":274.2236,"MEAN_ANOMALY":70.6731,"EPHEMERIS_TYPE":0,"CLASSIFICATION_TYPE":"U","NORAD_CAT_ID":43562,"ELEMENT_SET_NO":999,"REV_AT_EPOCH":2812,"BSTAR":0,"MEAN_MOTION_DOT":-2.82e-6,"MEAN_MOTION_DDOT":0},{"OBJECT_NAME":"TELSTAR 18V","OBJECT_ID":"2018-069A","EPOCH":"2026-03-06T23:18:38.647296","MEAN_MOTION":1.00270292,"ECCENTRICITY":0.0002107,"INCLINATION":0.0167,"RA_OF_ASC_NODE":202.1119,"ARG_OF_PERICENTER":146.7132,"MEAN_ANOMALY":303.5028,"EPHEMERIS_TYPE":0,"CLASSIFICATION_TYPE":"U","NORAD_CAT_ID":43611,"ELEMENT_SET_NO":999,"REV_AT_EPOCH":2760,"BSTAR":0,"MEAN_MOTION_DOT":-2.97e-6,"MEAN_MOTION_DDOT":0}]
